[{"OBJECT_NAME":"IRIDIUM 135","OBJECT_ID":"2017-083A","EPOCH":"2026-03-09T20:54:11.059776","MEAN_MOTION":14.34219982,"ECCENTRICITY":0.00022174,"INCLINATION":86.4022,"RA_OF_ASC_NODE":3.5181,"ARG_OF_PERICENTER":86.9121,"MEAN_ANOMALY":273.2329,"EPHEMERIS_TYPE":0,"CLASSIFICATION_TYPE":"U","NORAD_CAT_ID":43070,"ELEMENT_SET_NO":999,"REV_AT_EPOCH":42991,"BSTAR":4.5894748e-5,"MEAN_MOTION_DOT":1.48e-6,"MEAN_MOTION_DDOT":0},{"OBJECT_NAME":"COSMOS 923","OBJECT_ID":"1977-059A","EPOCH":"2026-03-09T16:52:02.955072","MEAN_MOTION":14.32871357,"ECCENTRICITY":0.00122322,"INCLINATION":74.0488,"RA_OF_ASC_NODE":204.8264,"ARG_OF_PERICENTER":153.7299,"MEAN_ANOMALY":206.4476,"EPHEMERIS_TYPE":0,"CLASSIFICATION_TYPE":"U","NORAD_CAT_ID":10120,"ELEMENT_SET_NO":999,"REV_AT_EPOCH":54161,"BSTAR":9.6280583e-5,"MEAN_MOTION_DOT":2.37e-6,"MEAN_MOTION_DDOT":0}]
